[{"OBJECT_NAME":"ONEWEB-0579","OBJECT_ID":"2023-043Y","EPOCH":"2026-02-07T02:56:36.518496","MEAN_MOTION":13.21828158,"ECCENTRICITY":0.00012418,"INCLINATION":87.9194,"RA_OF_ASC_NODE":269.9078,"ARG_OF_PERICENTER":85.4253,"MEAN_ANOMALY":274.7022,"EPHEMERIS_TYPE":0,"CLASSIFICATION_TYPE":"U","NORAD_CAT_ID":56068,"ELEMENT_SET_NO":999,"REV_AT_EPOCH":14106,"BSTAR":0.0002616951,"MEAN_MOTION_DOT":1.21e-6,"MEAN_MOTION_DDOT":0},{"OBJECT_NAME":"ONEWEB-0581","OBJECT_ID":"2023-043Z","EPOCH":"2026-02-07T02:52:01.689600","MEAN_MOTION":13.16594123,"ECCENTRICITY":0.00014562,"INCLINATION":87.9002,"RA_OF_ASC_NODE":254.6737,"ARG_OF_PERICENTER":70.3107,"MEAN_ANOMALY":289.8181,"EPHEMERIS_TYPE":0,"CLASSIFICATION_TYPE":"U","NORAD_CAT_ID":56069,"ELEMENT_SET_NO":999,"REV_AT_EPOCH":14184,"BSTAR":0.00018384275,"MEAN_MOTION_DOT":8.3e-7,"MEAN_MOTION_DDOT":0},{"OBJECT_NAME":"ONEWEB-0609","OBJECT_ID":"2023-043AA","EPOCH":"2026-02-07T04:50:33.926784","MEAN_MOTION":13.15548649,"ECCENTRICITY":0.00015203,"INCLINATION":87.8982,"RA_OF_ASC_NODE":285.1706,"ARG_OF_PERICENTER":83.0505,"MEAN_ANOMALY":277.0798,"EPHEMERIS_TYPE":0,"CLASSIFICATION_TYPE":"U","NORAD_CAT_ID":56070,"ELEMENT_SET_NO":999,"REV_AT_EPOCH":13934,"BSTAR":0.00056711855,"MEAN_MOTION_DOT":2.26e-6,"MEAN_MOTION_DDOT":0},{"OBJECT_NAME":"ONEWEB-0613","OBJECT_ID":"2023-043AB","EPOCH":"2026-02-07T04:43:43.519872","MEAN_MOTION":13.15548572,"ECCENTRICITY":0.0001275,"INCLINATION":87.8983,"RA_OF_ASC_NODE":285.1829,"ARG_OF_PERICENTER":83.2868,"MEAN_ANOMALY":276.8407,"EPHEMERIS_TYPE":0,"CLASSIFICATION_TYPE":"U","NORAD_CAT_ID":56071,"ELEMENT_SET_NO":999,"REV_AT_EPOCH":13934,"BSTAR":0.00047324825,"MEAN_MOTION_DOT":1.91e-6,"MEAN_MOTION_DDOT":0},{"OBJECT_NAME":"ONEWEB-0630","OBJECT_ID":"2023-043AC","EPOCH":"2026-02-07T04:36:52.496928","MEAN_MOTION":13.15551798,"ECCENTRICITY":0.00012463,"INCLINATION":87.8978,"RA_OF_ASC_NODE":285.1536,"ARG_OF_PERICENTER":85.6663,"MEAN_ANOMALY":274.461,"EPHEMERIS_TYPE":0,"CLASSIFICATION_TYPE":"U","NORAD_CAT_ID":56072,"ELEMENT_SET_NO":999,"REV_AT_EPOCH":13933,"BSTAR":0.00024465569,"MEAN_MOTION_DOT":1.05e-6,"MEAN_MOTION_DDOT":0},{"OBJECT_NAME":"ONEWEB-0632","OBJECT_ID":"2023-043AD","EPOCH":"2026-02-07T04:30:01.642464","MEAN_MOTION":13.15548524,"ECCENTRICITY":0.00014988,"INCLINATION":87.8981,"RA_OF_ASC_NODE":285.1722,"ARG_OF_PERICENTER":71.2133,"MEAN_ANOMALY":288.916,"EPHEMERIS_TYPE":0,"CLASSIFICATION_TYPE":"U","NORAD_CAT_ID":56073,"ELEMENT_SET_NO":999,"REV_AT_EPOCH":13933,"BSTAR":-1.2174175e-5,"MEAN_MOTION_DOT":8.0e-8,"MEAN_MOTION_DDOT":0},{"OBJECT_NAME":"ONEWEB-0633","OBJECT_ID":"2023-043AE","EPOCH":"2026-02-07T04:20:54.712320","MEAN_MOTION":13.15549349,"ECCENTRICITY":0.00012761,"INCLINATION":87.8981,"RA_OF_ASC_NODE":285.1364,"ARG_OF_PERICENTER":94.3878,"MEAN_ANOMALY":265.7398,"EPHEMERIS_TYPE":0,"CLASSIFICATION_TYPE":"U","NORAD_CAT_ID":56074,"ELEMENT_SET_NO":999,"REV_AT_EPOCH":13931,"BSTAR":-1.5558382e-5,"MEAN_MOTION_DOT":7.0e-8,"MEAN_MOTION_DDOT":0},{"OBJECT_NAME":"ONEWEB-0634","OBJECT_ID":"2023-043AF","EPOCH":"2026-02-07T04:00:21.958848","MEAN_MOTION":13.15548952,"ECCENTRICITY":0.00017666,"INCLINATION":87.8982,"RA_OF_ASC_NODE":285.1918,"ARG_OF_PERICENTER":88.0818,"MEAN_ANOMALY":272.0515,"EPHEMERIS_TYPE":0,"CLASSIFICATION_TYPE":"U","NORAD_CAT_ID":56075,"ELEMENT_SET_NO":999,"REV_AT_EPOCH":13930,"BSTAR":-0.00011518372,"MEAN_MOTION_DOT":-3.1e-7,"MEAN_MOTION_DDOT":0},{"OBJECT_NAME":"ONEWEB-0635","OBJECT_ID":"2023-043AG","EPOCH":"2026-02-07T05:43:02.036064","MEAN_MOTION":13.15549006,"ECCENTRICITY":0.00015254,"INCLINATION":87.8987,"RA_OF_ASC_NODE":285.13,"ARG_OF_PERICENTER":67.5582,"MEAN_ANOMALY":292.571,"EPHEMERIS_TYPE":0,"CLASSIFICATION_TYPE":"U","NORAD_CAT_ID":56076,"ELEMENT_SET_NO":999,"REV_AT_EPOCH":13934,"BSTAR":-4.7317334e-5,"MEAN_MOTION_DOT":-5.0e-8,"MEAN_MOTION_DDOT":0},{"OBJECT_NAME":"ONEWEB-0636","OBJECT_ID":"2023-043AH","EPOCH":"2026-02-07T05:31:37.686720","MEAN_MOTION":13.15548457,"ECCENTRICITY":0.00015617,"INCLINATION":87.898,"RA_OF_ASC_NODE":285.1474,"ARG_OF_PERICENTER":71.6787,"MEAN_ANOMALY":288.4514,"EPHEMERIS_TYPE":0,"CLASSIFICATION_TYPE":"U","NORAD_CAT_ID":56077,"ELEMENT_SET_NO":999,"REV_AT_EPOCH":13932,"BSTAR":3.4169709e-5,"MEAN_MOTION_DOT":2.6e-7,"MEAN_MOTION_DDOT":0},{"OBJECT_NAME":"ONEWEB-0637","OBJECT_ID":"2023-043AJ","EPOCH":"2026-02-07T05:22:31.719072","MEAN_MOTION":13.15549695,"ECCENTRICITY":0.00018007,"INCLINATION":87.8981,"RA_OF_ASC_NODE":285.1662,"ARG_OF_PERICENTER":77.2797,"MEAN_ANOMALY":282.8534,"EPHEMERIS_TYPE":0,"CLASSIFICATION_TYPE":"U","NORAD_CAT_ID":56078,"ELEMENT_SET_NO":999,"REV_AT_EPOCH":13934,"BSTAR":0.00027909739,"MEAN_MOTION_DOT":1.18e-6,"MEAN_MOTION_DDOT":0},{"OBJECT_NAME":"ONEWEB-0647","OBJECT_ID":"2023-043AK","EPOCH":"2026-02-07T05:15:39.952224","MEAN_MOTION":13.15549245,"ECCENTRICITY":0.00013785,"INCLINATION":87.8981,"RA_OF_ASC_NODE":285.1802,"ARG_OF_PERICENTER":78.6427,"MEAN_ANOMALY":281.4858,"EPHEMERIS_TYPE":0,"CLASSIFICATION_TYPE":"U","NORAD_CAT_ID":56079,"ELEMENT_SET_NO":999,"REV_AT_EPOCH":13933,"BSTAR":0.0003585352,"MEAN_MOTION_DOT":1.48e-6,"MEAN_MOTION_DDOT":0},{"OBJECT_NAME":"ONEWEB-0651","OBJECT_ID":"2023-043AL","EPOCH":"2026-02-07T05:08:49.560000","MEAN_MOTION":13.15548907,"ECCENTRICITY":0.00016558,"INCLINATION":87.8983,"RA_OF_ASC_NODE":285.1761,"ARG_OF_PERICENTER":70.9767,"MEAN_ANOMALY":289.1543,"EPHEMERIS_TYPE":0,"CLASSIFICATION_TYPE":"U","NORAD_CAT_ID":56080,"ELEMENT_SET_NO":999,"REV_AT_EPOCH":14053,"BSTAR":0.00032097167,"MEAN_MOTION_DOT":1.34e-6,"MEAN_MOTION_DDOT":0},{"OBJECT_NAME":"ONEWEB-0718","OBJECT_ID":"2023-043AM","EPOCH":"2026-02-07T05:01:58.146528","MEAN_MOTION":13.15549754,"ECCENTRICITY":0.0001908,"INCLINATION":87.8981,"RA_OF_ASC_NODE":285.1567,"ARG_OF_PERICENTER":96.6876,"MEAN_ANOMALY":263.4472,"EPHEMERIS_TYPE":0,"CLASSIFICATION_TYPE":"U","NORAD_CAT_ID":56081,"ELEMENT_SET_NO":999,"REV_AT_EPOCH":13934,"BSTAR":0.00037440762,"MEAN_MOTION_DOT":1.54e-6,"MEAN_MOTION_DDOT":0},{"OBJECT_NAME":"ONEWEB-0561","OBJECT_ID":"2023-068A","EPOCH":"2026-02-07T06:35:49.047072","MEAN_MOTION":13.20770723,"ECCENTRICITY":0.00014838,"INCLINATION":87.9207,"RA_OF_ASC_NODE":300.3742,"ARG_OF_PERICENTER":63.7423,"MEAN_ANOMALY":296.3862,"EPHEMERIS_TYPE":0,"CLASSIFICATION_TYPE":"U","NORAD_CAT_ID":56710,"ELEMENT_SET_NO":999,"REV_AT_EPOCH":13235,"BSTAR":0.00013006029,"MEAN_MOTION_DOT":6.6e-7,"MEAN_MOTION_DDOT":0},{"OBJECT_NAME":"ONEWEB-0668","OBJECT_ID":"2023-068B","EPOCH":"2026-02-07T02:15:33.079968","MEAN_MOTION":13.16594793,"ECCENTRICITY":0.00020886,"INCLINATION":87.9016,"RA_OF_ASC_NODE":254.6574,"ARG_OF_PERICENTER":94.4135,"MEAN_ANOMALY":265.7234,"EPHEMERIS_TYPE":0,"CLASSIFICATION_TYPE":"U","NORAD_CAT_ID":56711,"ELEMENT_SET_NO":999,"REV_AT_EPOCH":13466,"BSTAR":-0.00035679846,"MEAN_MOTION_DOT":-1.24e-6,"MEAN_MOTION_DDOT":0}]
