ONEWEB-0579             
1 56068U 23043Y   26038.12264489  .00000121  00000+0  26170-3 0  9994
2 56068  87.9194 269.9078 0001241  85.4253 274.7022 13.21828158141066
ONEWEB-0581             
1 56069U 23043Z   26038.11946400  .00000083  00000+0  18384-3 0  9999
2 56069  87.9002 254.6737 0001456  70.3107 289.8181 13.16594123141842
ONEWEB-0609             
1 56070U 23043AA  26038.20178156  .00000226  00000+0  56712-3 0  9992
2 56070  87.8982 285.1706 0001520  83.0505 277.0798 13.15548649139346
ONEWEB-0613             
1 56071U 23043AB  26038.19703148  .00000191  00000+0  47325-3 0  9997
2 56071  87.8983 285.1829 0001275  83.2868 276.8407 13.15548572139344
ONEWEB-0630             
1 56072U 23043AC  26038.19227427  .00000105  00000+0  24466-3 0  9995
2 56072  87.8978 285.1536 0001246  85.6663 274.4610 13.15551798139334
ONEWEB-0632             
1 56073U 23043AD  26038.18751901  .00000008  00000+0 -12174-4 0  9991
2 56073  87.8981 285.1722 0001498  71.2133 288.9160 13.15548524139331
ONEWEB-0633             
1 56074U 23043AE  26038.18118880  .00000007  00000+0 -15558-4 0  9993
2 56074  87.8981 285.1364 0001276  94.3878 265.7398 13.15549349139310
ONEWEB-0634             
1 56075U 23043AF  26038.16692082 -.00000031  00000+0 -11518-3 0  9992
2 56075  87.8982 285.1918 0001766  88.0818 272.0515 13.15548952139305
ONEWEB-0635             
1 56076U 23043AG  26038.23821801 -.00000005  00000+0 -47317-4 0  9992
2 56076  87.8987 285.1300 0001525  67.5582 292.5710 13.15549006139348
ONEWEB-0636             
1 56077U 23043AH  26038.23029730  .00000026  00000+0  34170-4 0  9998
2 56077  87.8980 285.1474 0001561  71.6787 288.4514 13.15548457139320
ONEWEB-0637             
1 56078U 23043AJ  26038.22397823  .00000118  00000+0  27910-3 0  9994
2 56078  87.8981 285.1662 0001800  77.2797 282.8534 13.15549695139347
ONEWEB-0647             
1 56079U 23043AK  26038.21921241  .00000148  00000+0  35854-3 0  9990
2 56079  87.8981 285.1802 0001378  78.6427 281.4858 13.15549245139333
ONEWEB-0651             
1 56080U 23043AL  26038.21446250  .00000134  00000+0  32097-3 0  9995
2 56080  87.8983 285.1761 0001655  70.9767 289.1543 13.15548907140535
ONEWEB-0718             
1 56081U 23043AM  26038.20970077  .00000154  00000+0  37441-3 0  9994
2 56081  87.8981 285.1567 0001908  96.6876 263.4472 13.15549754139349
ONEWEB-0561             
1 56710U 23068A   26038.27487323  .00000066  00000+0  13006-3 0  9997
2 56710  87.9207 300.3742 0001483  63.7423 296.3862 13.20770723132356
ONEWEB-0668             
1 56711U 23068B   26038.09413287 -.00000124  00000+0 -35680-3 0  9995
2 56711  87.9016 254.6574 0002088  94.4135 265.7234 13.16594793134667
